{"type": "FeatureCollection", "features": [ {"type": "Feature", "properties": {"norad_id": 33799, "name": "COSMOS 2251 DEB", "group": "cosmos-2251-debris", "lat": -72.50014223106879, "lon": -9.475141211287088, "alt_km": 650.95295118993, "timestamp": "2025-12-25T22:42:17.405740+00:00", "meta": {"OBJECT_NAME": "COSMOS 2251 DEB", "OBJECT_ID": "1993-036AQ", "EPOCH": "2025-12-25T05:29:12.926112", "MEAN_MOTION": 14.79807515, "ECCENTRICITY": 0.0022135, "INCLINATION": 74.0314, "RA_OF_ASC_NODE": 57.1921, "ARG_OF_PERICENTER": 123.2586, "MEAN_ANOMALY": 293.5848, "EPHEMERIS_TYPE": 0, "CLASSIFICATION_TYPE": "U", "NORAD_CAT_ID": 33799, "ELEMENT_SET_NO": 999, "REV_AT_EPOCH": 88996, "BSTAR": 0.0013645, "MEAN_MOTION_DOT": 0.000103, "MEAN_MOTION_DDOT": 0}, "tle": {"line1": "1 33799U 93036AQ  25359.22862183  .00010300  00000+0  13645-2 0  9992", "line2": "2 33799  74.0314  57.1921 0022135 123.2586 293.5848 14.79807515889963"}}, "geometry": {"type": "Point", "coordinates": [-9.475141211287088, -72.50014223106879]}}, {"type": "Feature", "properties": {"norad_id": 33805, "name": "COSMOS 2251 DEB", "group": "cosmos-2251-debris", "lat": 73.38714029251004, "lon": 32.52289982981189, "alt_km": 652.0042648770468, "timestamp": "2025-12-25T22:42:17.405751+00:00", "meta": {"OBJECT_NAME": "COSMOS 2251 DEB", "OBJECT_ID": "1993-036AW", "EPOCH": "2025-12-25T18:58:51.021120", "MEAN_MOTION": 14.57884158, "ECCENTRICITY": 0.005989, "INCLINATION": 74.0313, "RA_OF_ASC_NODE": 286.503, "ARG_OF_PERICENTER": 111.6609, "MEAN_ANOMALY": 249.0949, "EPHEMERIS_TYPE": 0, "CLASSIFICATION_TYPE": "U", "NORAD_CAT_ID": 33805, "ELEMENT_SET_NO": 999, "REV_AT_EPOCH": 89417, "BSTAR": 0.0002508, "MEAN_MOTION_DOT": 1.148e-05, "MEAN_MOTION_DDOT": 0}, "tle": {"line1": "1 33805U 93036AW  25359.79086830  .00001148  00000+0  25080-3 0  9996", "line2": "2 33805  74.0313 286.5030 0059890 111.6609 249.0949 14.57884158894175"}}, "geometry": {"type": "Point", "coordinates": [32.52289982981189, 73.38714029251004]}}, {"type": "Feature", "properties": {"norad_id": 33811, "name": "COSMOS 2251 DEB", "group": "cosmos-2251-debris", "lat": 59.63725954571281, "lon": -55.06730497497495, "alt_km": 536.1257860850455, "timestamp": "2025-12-25T22:42:17.405761+00:00", "meta": {"OBJECT_NAME": "COSMOS 2251 DEB", "OBJECT_ID": "1993-036BC", "EPOCH": "2025-12-25T05:34:21.057024", "MEAN_MOTION": 15.05634141, "ECCENTRICITY": 0.0030979, "INCLINATION": 73.8381, "RA_OF_ASC_NODE": 276.7409, "ARG_OF_PERICENTER": 355.1331, "MEAN_ANOMALY": 160.8784, "EPHEMERIS_TYPE": 0, "CLASSIFICATION_TYPE": "U", "NORAD_CAT_ID": 33811, "ELEMENT_SET_NO": 999, "REV_AT_EPOCH": 90206, "BSTAR": 0.0011889, "MEAN_MOTION_DOT": 0.00017348, "MEAN_MOTION_DDOT": 0}, "tle": {"line1": "1 33811U 93036BC  25359.23218816  .00017348  00000+0  11889-2 0  9993", "line2": "2 33811  73.8381 276.7409 0030979 355.1331 160.8784 15.05634141902063"}}, "geometry": {"type": "Point", "coordinates": [-55.06730497497495, 59.63725954571281]}}, {"type": "Feature", "properties": {"norad_id": 33815, "name": "COSMOS 2251 DEB", "group": "cosmos-2251-debris", "lat": 73.75742899077139, "lon": -112.32719677667404, "alt_km": 494.48632311413894, "timestamp": "2025-12-25T22:42:17.405771+00:00", "meta": {"OBJECT_NAME": "COSMOS 2251 DEB", "OBJECT_ID": "1993-036BG", "EPOCH": "2025-12-25T13:08:18.860928", "MEAN_MOTION": 15.21675104, "ECCENTRICITY": 0.000414, "INCLINATION": 73.9535, "RA_OF_ASC_NODE": 149.6141, "ARG_OF_PERICENTER": 330.6478, "MEAN_ANOMALY": 99.1138, "EPHEMERIS_TYPE": 0, "CLASSIFICATION_TYPE": "U", "NORAD_CAT_ID": 33815, "ELEMENT_SET_NO": 999, "REV_AT_EPOCH": 88565, "BSTAR": 0.0081265, "MEAN_MOTION_DOT": 0.001887, "MEAN_MOTION_DDOT": 0}, "tle": {"line1": "1 33815U 93036BG  25359.54744052  .00188700  00000+0  81265-2 0  9993", "line2": "2 33815  73.9535 149.6141 0004140 330.6478  99.1138 15.21675104885655"}}, "geometry": {"type": "Point", "coordinates": [-112.32719677667404, 73.75742899077139]}}, {"type": "Feature", "properties": {"norad_id": 33816, "name": "COSMOS 2251 DEB", "group": "cosmos-2251-debris", "lat": -57.051181942245, "lon": -70.51594145809551, "alt_km": 1126.1053274033047, "timestamp": "2025-12-25T22:42:17.405782+00:00", "meta": {"OBJECT_NAME": "COSMOS 2251 DEB", "OBJECT_ID": "1993-036BH", "EPOCH": "2025-12-25T14:36:56.196000", "MEAN_MOTION": 13.81797239, "ECCENTRICITY": 0.0264117, "INCLINATION": 73.8953, "RA_OF_ASC_NODE": 83.5844, "ARG_OF_PERICENTER": 93.9633, "MEAN_ANOMALY": 269.1724, "EPHEMERIS_TYPE": 0, "CLASSIFICATION_TYPE": "U", "NORAD_CAT_ID": 33816, "ELEMENT_SET_NO": 999, "REV_AT_EPOCH": 84851, "BSTAR": 0.00036192, "MEAN_MOTION_DOT": 4.84e-06, "MEAN_MOTION_DDOT": 0}, "tle": {"line1": "1 33816U 93036BH  25359.60898375  .00000484  00000+0  36192-3 0  9991", "line2": "2 33816  73.8953  83.5844 0264117  93.9633 269.1724 13.81797239848511"}}, "geometry": {"type": "Point", "coordinates": [-70.51594145809551, -57.051181942245]}}, {"type": "Feature", "properties": {"norad_id": 33818, "name": "COSMOS 2251 DEB", "group": "cosmos-2251-debris", "lat": 17.333925996420774, "lon": 144.03711782351186, "alt_km": 529.0463770696233, "timestamp": "2025-12-25T22:42:17.405792+00:00", "meta": {"OBJECT_NAME": "COSMOS 2251 DEB", "OBJECT_ID": "1993-036BK", "EPOCH": "2025-12-25T18:22:52.131360", "MEAN_MOTION": 15.13586856, "ECCENTRICITY": 0.0023891, "INCLINATION": 74.0799, "RA_OF_ASC_NODE": 139.2987, "ARG_OF_PERICENTER": 121.4372, "MEAN_ANOMALY": 355.7673, "EPHEMERIS_TYPE": 0, "CLASSIFICATION_TYPE": "U", "NORAD_CAT_ID": 33818, "ELEMENT_SET_NO": 999, "REV_AT_EPOCH": 90059, "BSTAR": 0.0025615, "MEAN_MOTION_DOT": 0.00046559, "MEAN_MOTION_DDOT": 0}, "tle": {"line1": "1 33818U 93036BK  25359.76588115  .00046559  00000+0  25615-2 0  9998", "line2": "2 33818  74.0799 139.2987 0023891 121.4372 355.7673 15.13586856900590"}}, "geometry": {"type": "Point", "coordinates": [144.03711782351186, 17.333925996420774]}}, {"type": "Feature", "properties": {"norad_id": 33819, "name": "COSMOS 2251 DEB", "group": "cosmos-2251-debris", "lat": -73.448296830514, "lon": 78.54984834258313, "alt_km": 838.7089439709243, "timestamp": "2025-12-25T22:42:17.405802+00:00", "meta": {"OBJECT_NAME": "COSMOS 2251 DEB", "OBJECT_ID": "1993-036BL", "EPOCH": "2025-12-25T13:21:08.180352", "MEAN_MOTION": 14.32262631, "ECCENTRICITY": 0.0089549, "INCLINATION": 74.1772, "RA_OF_ASC_NODE": 186.6622, "ARG_OF_PERICENTER": 44.1171, "MEAN_ANOMALY": 13.1844, "EPHEMERIS_TYPE": 0, "CLASSIFICATION_TYPE": "U", "NORAD_CAT_ID": 33819, "ELEMENT_SET_NO": 999, "REV_AT_EPOCH": 87679, "BSTAR": 0.00051475, "MEAN_MOTION_DOT": 1.427e-05, "MEAN_MOTION_DDOT": 0}, "tle": {"line1": "1 33819U 93036BL  25359.55634468  .00001427  00000+0  51475-3 0  9998", "line2": "2 33819  74.1772 186.6622 0089549  44.1171  13.1844 14.32262631876796"}}, "geometry": {"type": "Point", "coordinates": [78.54984834258313, -73.448296830514]}}, {"type": "Feature", "properties": {"norad_id": 33821, "name": "COSMOS 2251 DEB", "group": "cosmos-2251-debris", "lat": 58.530579974704466, "lon": 142.7984442917467, "alt_km": 476.0708432489773, "timestamp": "2025-12-25T22:42:17.405812+00:00", "meta": {"OBJECT_NAME": "COSMOS 2251 DEB", "OBJECT_ID": "1993-036BN", "EPOCH": "2025-12-25T17:42:39.731904", "MEAN_MOTION": 15.26124153, "ECCENTRICITY": 0.0049207, "INCLINATION": 74.0304, "RA_OF_ASC_NODE": 115.3421, "ARG_OF_PERICENTER": 144.3088, "MEAN_ANOMALY": 216.142, "EPHEMERIS_TYPE": 0, "CLASSIFICATION_TYPE": "U", "NORAD_CAT_ID": 33821, "ELEMENT_SET_NO": 999, "REV_AT_EPOCH": 75199, "BSTAR": 0.0012899, "MEAN_MOTION_DOT": 0.00034606, "MEAN_MOTION_DDOT": 0}, "tle": {"line1": "1 33821U 93036BN  25359.73795986  .00034606  00000+0  12899-2 0  9995", "line2": "2 33821  74.0304 115.3421 0049207 144.3088 216.1420 15.26124153751991"}}, "geometry": {"type": "Point", "coordinates": [142.7984442917467, 58.530579974704466]}}, {"type": "Feature", "properties": {"norad_id": 33822, "name": "COSMOS 2251 DEB", "group": "cosmos-2251-debris", "lat": -73.25783130770346, "lon": 62.089123733232505, "alt_km": 785.551126215456, "timestamp": "2025-12-25T22:42:17.405822+00:00", "meta": {"OBJECT_NAME": "COSMOS 2251 DEB", "OBJECT_ID": "1993-036BP", "EPOCH": "2025-12-25T13:16:47.544384", "MEAN_MOTION": 14.13138003, "ECCENTRICITY": 0.0152596, "INCLINATION": 74.0681, "RA_OF_ASC_NODE": 171.0597, "ARG_OF_PERICENTER": 214.3479, "MEAN_ANOMALY": 212.0747, "EPHEMERIS_TYPE": 0, "CLASSIFICATION_TYPE": "U", "NORAD_CAT_ID": 33822, "ELEMENT_SET_NO": 999, "REV_AT_EPOCH": 86235, "BSTAR": 0.0016849, "MEAN_MOTION_DOT": 3.495e-05, "MEAN_MOTION_DDOT": 0}, "tle": {"line1": "1 33822U 93036BP  25359.55332806  .00003495  00000+0  16849-2 0  9995", "line2": "2 33822  74.0681 171.0597 0152596 214.3479 212.0747 14.13138003862355"}}, "geometry": {"type": "Point", "coordinates": [62.089123733232505, -73.25783130770346]}}, {"type": "Feature", "properties": {"norad_id": 33823, "name": "COSMOS 2251 DEB", "group": "cosmos-2251-debris", "lat": 45.06603571248646, "lon": -70.74410061308026, "alt_km": 959.2272499867131, "timestamp": "2025-12-25T22:42:17.405832+00:00", "meta": {"OBJECT_NAME": "COSMOS 2251 DEB", "OBJECT_ID": "1993-036BQ", "EPOCH": "2025-12-25T19:12:26.186112", "MEAN_MOTION": 13.98984467, "ECCENTRICITY": 0.020949, "INCLINATION": 73.81, "RA_OF_ASC_NODE": 126.4404, "ARG_OF_PERICENTER": 249.5213, "MEAN_ANOMALY": 231.3986, "EPHEMERIS_TYPE": 0, "CLASSIFICATION_TYPE": "U", "NORAD_CAT_ID": 33823, "ELEMENT_SET_NO": 999, "REV_AT_EPOCH": 85792, "BSTAR": 0.00090896, "MEAN_MOTION_DOT": 1.558e-05, "MEAN_MOTION_DDOT": 0}, "tle": {"line1": "1 33823U 93036BQ  25359.80030308  .00001558  00000+0  90896-3 0  9999", "line2": "2 33823  73.8100 126.4404 0209490 249.5213 231.3986 13.98984467857923"}}, "geometry": {"type": "Point", "coordinates": [-70.74410061308026, 45.06603571248646]}}]}